{"type":"FeatureCollection","features":[{"type":"Feature","properties":{"name":"zona1","description":"descripcion","intensity":10},"geometry":{"type":"Point","coordinates":[-71.18325,8.570578]}},{"type":"Feature","properties":{"name":"zona1","description":"descripcion","intensity":10},"geometry":{"type":"Point","coordinates":[-71.178752,8.572599]}},{"type":"Feature","properties":{"name":"zona1","description":"descripcion","intensity":10},"geometry":{"type":"Point","coordinates":[-71.176598,8.573525]}},{"type":"Feature","properties":{"name":"zona1","description":"descripcion","intensity":10},"geometry":{"type":"Point","coordinates":[-71.175015,8.574822]}},{"type":"Feature","properties":{"name":"zona1","description":"descripcion","intensity":10},"geometry":{"type":"Point","coordinates":[-71.173579,8.57597]}},{"type":"Feature","properties":{"name":"zona1","description":"descripcion","intensity":10},"geometry":{"type":"Point","coordinates":[-71.172019,8.576734]}},{"type":"Feature","properties":{"name":"zona1","description":"descripcion","intensity":10},"geometry":{"type":"Point","coordinates":[-71.170208,8.576606]}},{"type":"Feature","properties":{"name":"zona1","description":"descripcion","intensity":10},"geometry":{"type":"Point","coordinates":[-71.180804,8.571588]}},{"type":"Feature","properties":{"name":"zona1","description":"descripcion","intensity":10},"geometry":{"type":"Point","coordinates":[-71.16892,8.576097]}},{"type":"Feature","properties":{"name":"zona1","description":"descripcion","intensity":10},"geometry":{"type":"Point","coordinates":[-71.168017,8.575843]}}]}