{"type":"FeatureCollection","features":[{"type":"Feature","properties":{"name":"zona1","description":"descripcion","intensity":10},"geometry":{"type":"Point","coordinates":[-71.150321,8.595546]}},{"type":"Feature","properties":{"name":"zona1","description":"descripcion","intensity":10},"geometry":{"type":"Point","coordinates":[-71.150356,8.595388]}},{"type":"Feature","properties":{"name":"zona1","description":"descripcion","intensity":10},"geometry":{"type":"Point","coordinates":[-71.150289,8.59551]}},{"type":"Feature","properties":{"name":"zona1","description":"descripcion","intensity":10},"geometry":{"type":"Point","coordinates":[-71.150303,8.595456]}},{"type":"Feature","properties":{"name":"zona1","description":"descripcion","intensity":10},"geometry":{"type":"Point","coordinates":[-71.150377,8.595437]}},{"type":"Feature","properties":{"name":"zona1","description":"descripcion","intensity":10},"geometry":{"type":"Point","coordinates":[-71.150346,8.595484]}},{"type":"Feature","properties":{"name":"zona1","description":"descripcion","intensity":10},"geometry":{"type":"Point","coordinates":[-71.150267,8.595566]}},{"type":"Feature","properties":{"name":"zona1","description":"descripcion","intensity":10},"geometry":{"type":"Point","coordinates":[-71.149045,8.596202]}},{"type":"Feature","properties":{"name":"zona1","description":"descripcion","intensity":10},"geometry":{"type":"Point","coordinates":[-71.149301,8.596299]}},{"type":"Feature","properties":{"name":"zona1","description":"descripcion","intensity":10},"geometry":{"type":"Point","coordinates":[-71.14957,8.596267]}},{"type":"Feature","properties":{"name":"zona1","description":"descripcion","intensity":10},"geometry":{"type":"Point","coordinates":[-71.149461,8.596291]}},{"type":"Feature","properties":{"name":"zona1","description":"descripcion","intensity":10},"geometry":{"type":"Point","coordinates":[-71.148824,8.596493]}},{"type":"Feature","properties":{"name":"zona1","description":"descripcion","intensity":10},"geometry":{"type":"Point","coordinates":[-71.148952,8.596357]}},{"type":"Feature","properties":{"name":"zona1","description":"descripcion","intensity":10},"geometry":{"type":"Point","coordinates":[-71.148766,8.596279]}},{"type":"Feature","properties":{"name":"zona1","description":"descripcion","intensity":10},"geometry":{"type":"Point","coordinates":[-71.149175,8.596294]}},{"type":"Feature","properties":{"name":"zona1","description":"descripcion","intensity":10},"geometry":{"type":"Point","coordinates":[-71.148147,8.596915]}},{"type":"Feature","properties":{"name":"zona1","description":"descripcion","intensity":10},"geometry":{"type":"Point","coordinates":[-71.148147,8.596915]}},{"type":"Feature","properties":{"name":"zona1","description":"descripcion","intensity":10},"geometry":{"type":"Point","coordinates":[-71.148147,8.596915]}},{"type":"Feature","properties":{"name":"zona1","description":"descripcion","intensity":10},"geometry":{"type":"Point","coordinates":[-71.148294,8.597391]}},{"type":"Feature","properties":{"name":"zona1","description":"descripcion","intensity":10},"geometry":{"type":"Point","coordinates":[-71.148883,8.596158]}},{"type":"Feature","properties":{"name":"zona1","description":"descripcion","intensity":10},"geometry":{"type":"Point","coordinates":[-71.148353,8.596701]}},{"type":"Feature","properties":{"name":"zona1","description":"descripcion","intensity":10},"geometry":{"type":"Point","coordinates":[-71.14856,8.596457]}},{"type":"Feature","properties":{"name":"zona1","description":"descripcion","intensity":10},"geometry":{"type":"Point","coordinates":[-71.148196,8.597138]}},{"type":"Feature","properties":{"name":"zona1","description":"descripcion","intensity":10},"geometry":{"type":"Point","coordinates":[-71.148098,8.596701]}}]}