{"type":"FeatureCollection","features":[{"type":"Feature","properties":{"nombre":"zona1","descripcion":"descripcion","intensidad":10},"geometry":{"type":"Point","coordinates":[-71.190285,8.582981]}},{"type":"Feature","properties":{"nombre":"zona1","descripcion":"descripcion","intensidad":10},"geometry":{"type":"Point","coordinates":[-71.191262,8.590565]}},{"type":"Feature","properties":{"nombre":"zona1","descripcion":"descripcion","intensidad":10},"geometry":{"type":"Point","coordinates":[-71.191931,8.589751]}},{"type":"Feature","properties":{"nombre":"zona1","descripcion":"descripcion","intensidad":10},"geometry":{"type":"Point","coordinates":[-71.191262,8.589242]}},{"type":"Feature","properties":{"nombre":"zona1","descripcion":"descripcion","intensidad":10},"geometry":{"type":"Point","coordinates":[-71.190799,8.587969]}},{"type":"Feature","properties":{"nombre":"zona1","descripcion":"descripcion","intensidad":10},"geometry":{"type":"Point","coordinates":[-71.190696,8.58629]}},{"type":"Feature","properties":{"nombre":"zona1","descripcion":"descripcion","intensidad":10},"geometry":{"type":"Point","coordinates":[-71.19116,8.584355]}},{"type":"Feature","properties":{"nombre":"zona1","descripcion":"descripcion","intensidad":10},"geometry":{"type":"Point","coordinates":[-71.190696,8.585119]}}]}